{
  "type": "FeatureCollection",
  "features": [
    {
      "type": "Feature",
      "properties": {
        "norad_id": 36234,
        "name": "FENGYUN 1C DEB",
        "group": "fengyun-1c-debris",
        "lat": -12.901964501763166,
        "lon": -125.48459337442385,
        "alt_km": 1320.8588753952354,
        "timestamp": "2025-12-12T18:57:44.417743+00:00",
        "meta_object_name": "FENGYUN 1C DEB",
        "meta_object_id": "1999-025DVK",
        "meta_epoch": "2025-12-08T10:31:28.850304",
        "meta_mean_motion": 13.45655828,
        "meta_eccentricity": 0.03174488,
        "meta_inclination": 99.0031,
        "meta_ra_of_asc_node": 52.6849,
        "meta_arg_of_pericenter": 39.1104,
        "meta_mean_anomaly": 323.2521,
        "meta_ephemeris_type": 0,
        "meta_classification_type": "U",
        "meta_norad_cat_id": 36234,
        "meta_element_set_no": 999,
        "meta_rev_at_epoch": 87889,
        "meta_bstar": 0.00050484626,
        "meta_mean_motion_dot": 3.7e-06,
        "meta_mean_motion_ddot": 0,
        "tle_line1": "1 36234U 99025DVK 25342.43852836  .00000370  00000+0  50485-3 0  9992",
        "tle_line2": "2 36234  99.0031  52.6849 0317448  39.1104 323.2521 13.45655828878896"
      },
      "geometry": {
        "type": "Point",
        "coordinates": [
          -125.48459337442385,
          -12.901964501763166
        ]
      }
    },
    {
      "type": "Feature",
      "properties": {
        "norad_id": 36236,
        "name": "FENGYUN 1C DEB",
        "group": "fengyun-1c-debris",
        "lat": -36.28923464670441,
        "lon": 33.754076299183396,
        "alt_km": 872.5199198657047,
        "timestamp": "2025-12-12T18:57:44.417753+00:00",
        "meta_object_name": "FENGYUN 1C DEB",
        "meta_object_id": "1999-025DVM",
        "meta_epoch": "2025-12-10T20:13:13.163808",
        "meta_mean_motion": 13.81954009,
        "meta_eccentricity": 0.0149575,
        "meta_inclination": 98.85,
        "meta_ra_of_asc_node": 25.3566,
        "meta_arg_of_pericenter": 3.3066,
        "meta_mean_anomaly": 356.9043,
        "meta_ephemeris_type": 0,
        "meta_classification_type": "U",
        "meta_norad_cat_id": 36236,
        "meta_element_set_no": 999,
        "meta_rev_at_epoch": 59721,
        "meta_bstar": 0.00040381,
        "meta_mean_motion_dot": 4.31e-06,
        "meta_mean_motion_ddot": 0,
        "tle_line1": "1 36236U 99025DVM 25344.84251347  .00000431  00000+0  40381-3 0  9993",
        "tle_line2": "2 36236  98.8500  25.3566 0149575   3.3066 356.9043 13.81954009597212"
      },
      "geometry": {
        "type": "Point",
        "coordinates": [
          33.754076299183396,
          -36.28923464670441
        ]
      }
    },
    {
      "type": "Feature",
      "properties": {
        "norad_id": 36238,
        "name": "FENGYUN 1C DEB",
        "group": "fengyun-1c-debris",
        "lat": 68.68379975245938,
        "lon": 162.21020101746083,
        "alt_km": 858.9239855722208,
        "timestamp": "2025-12-12T18:57:44.417763+00:00",
        "meta_object_name": "FENGYUN 1C DEB",
        "meta_object_id": "1999-025DVP",
        "meta_epoch": "2025-12-10T15:26:18.443328",
        "meta_mean_motion": 14.12389304,
        "meta_eccentricity": 0.00201233,
        "meta_inclination": 98.6473,
        "meta_ra_of_asc_node": 317.1851,
        "meta_arg_of_pericenter": 288.0763,
        "meta_mean_anomaly": 71.8217,
        "meta_ephemeris_type": 0,
        "meta_classification_type": "U",
        "meta_norad_cat_id": 36238,
        "meta_element_set_no": 999,
        "meta_rev_at_epoch": 86988,
        "meta_bstar": 0.00013750843,
        "meta_mean_motion_dot": 2.11e-06,
        "meta_mean_motion_ddot": 0,
        "tle_line1": "1 36238U 99025DVP 25344.64326902  .00000211  00000+0  13751-3 0  9990",
        "tle_line2": "2 36238  98.6473 317.1851 0020123 288.0763  71.8217 14.12389304869889"
      },
      "geometry": {
        "type": "Point",
        "coordinates": [
          162.21020101746083,
          68.68379975245938
        ]
      }
    },
    {
      "type": "Feature",
      "properties": {
        "norad_id": 36244,
        "name": "FENGYUN 1C DEB",
        "group": "fengyun-1c-debris",
        "lat": 14.457114495296322,
        "lon": 95.08732291577279,
        "alt_km": 809.4833977892513,
        "timestamp": "2025-12-12T18:57:44.417773+00:00",
        "meta_object_name": "FENGYUN 1C DEB",
        "meta_object_id": "1999-025DVV",
        "meta_epoch": "2025-12-10T06:13:35.069088",
        "meta_mean_motion": 14.24939547,
        "meta_eccentricity": 0.0048532,
        "meta_inclination": 98.9256,
        "meta_ra_of_asc_node": 94.837,
        "meta_arg_of_pericenter": 291.7141,
        "meta_mean_anomaly": 67.8875,
        "meta_ephemeris_type": 0,
        "meta_classification_type": "U",
        "meta_norad_cat_id": 36244,
        "meta_element_set_no": 999,
        "meta_rev_at_epoch": 91943,
        "meta_bstar": 0.0025575,
        "meta_mean_motion_dot": 6.011e-05,
        "meta_mean_motion_ddot": 0,
        "tle_line1": "1 36244U 99025DVV 25344.25943367  .00006011  00000+0  25575-2 0  9994",
        "tle_line2": "2 36244  98.9256  94.8370 0048532 291.7141  67.8875 14.24939547919433"
      },
      "geometry": {
        "type": "Point",
        "coordinates": [
          95.08732291577279,
          14.457114495296322
        ]
      }
    },
    {
      "type": "Feature",
      "properties": {
        "norad_id": 36247,
        "name": "FENGYUN 1C DEB",
        "group": "fengyun-1c-debris",
        "lat": -36.638980056516665,
        "lon": 6.070042010467043,
        "alt_km": 739.3384013938748,
        "timestamp": "2025-12-12T18:57:44.417783+00:00",
        "meta_object_name": "FENGYUN 1C DEB",
        "meta_object_id": "1999-025DVY",
        "meta_epoch": "2025-12-12T07:24:20.174976",
        "meta_mean_motion": 14.33581294,
        "meta_eccentricity": 0.0187286,
        "meta_inclination": 98.2687,
        "meta_ra_of_asc_node": 359.4008,
        "meta_arg_of_pericenter": 35.0482,
        "meta_mean_anomaly": 326.2863,
        "meta_ephemeris_type": 0,
        "meta_classification_type": "U",
        "meta_norad_cat_id": 36247,
        "meta_element_set_no": 999,
        "meta_rev_at_epoch": 70256,
        "meta_bstar": 0.00074473315,
        "meta_mean_motion_dot": 2.464e-05,
        "meta_mean_motion_ddot": 0,
        "tle_line1": "1 36247U 99025DVY 25346.30856684  .00002464  00000+0  74473-3 0  9990",
        "tle_line2": "2 36247  98.2687 359.4008 0187286  35.0482 326.2863 14.33581294702567"
      },
      "geometry": {
        "type": "Point",
        "coordinates": [
          6.070042010467043,
          -36.638980056516665
        ]
      }
    },
    {
      "type": "Feature",
      "properties": {
        "norad_id": 36254,
        "name": "FENGYUN 1C DEB",
        "group": "fengyun-1c-debris",
        "lat": 18.948987207861407,
        "lon": -62.39018142398069,
        "alt_km": 484.6533233300961,
        "timestamp": "2025-12-12T18:57:44.417793+00:00",
        "meta_object_name": "FENGYUN 1C DEB",
        "meta_object_id": "1999-025DWF",
        "meta_epoch": "2025-12-05T14:18:33.750144",
        "meta_mean_motion": 15.16014702,
        "meta_eccentricity": 0.00460473,
        "meta_inclination": 99.5277,
        "meta_ra_of_asc_node": 291.891,
        "meta_arg_of_pericenter": 66.6494,
        "meta_mean_anomaly": 293.9567,
        "meta_ephemeris_type": 0,
        "meta_classification_type": "U",
        "meta_norad_cat_id": 36254,
        "meta_element_set_no": 999,
        "meta_rev_at_epoch": 60668,
        "meta_bstar": 0.0055743559,
        "meta_mean_motion_dot": 0.00111504,
        "meta_mean_motion_ddot": 0,
        "tle_line1": "1 36254U 99025DWF 25339.59622396  .00111504  00000+0  55744-2 0  9997",
        "tle_line2": "2 36254  99.5277 291.8910 0046047  66.6494 293.9567 15.16014702606681"
      },
      "geometry": {
        "type": "Point",
        "coordinates": [
          -62.39018142398069,
          18.948987207861407
        ]
      }
    },
    {
      "type": "Feature",
      "properties": {
        "norad_id": 36255,
        "name": "FENGYUN 1C DEB",
        "group": "fengyun-1c-debris",
        "lat": 76.34705731109439,
        "lon": 130.64213975111795,
        "alt_km": 741.9748104422661,
        "timestamp": "2025-12-12T18:57:44.417804+00:00",
        "meta_object_name": "FENGYUN 1C DEB",
        "meta_object_id": "1999-025DWG",
        "meta_epoch": "2025-12-11T01:01:55.157664",
        "meta_mean_motion": 14.36557249,
        "meta_eccentricity": 0.00638,
        "meta_inclination": 99.4341,
        "meta_ra_of_asc_node": 265.5336,
        "meta_arg_of_pericenter": 168.3873,
        "meta_mean_anomaly": 261.8738,
        "meta_ephemeris_type": 0,
        "meta_classification_type": "U",
        "meta_norad_cat_id": 36255,
        "meta_element_set_no": 999,
        "meta_rev_at_epoch": 63986,
        "meta_bstar": 0.00107433,
        "meta_mean_motion_dot": 3.181e-05,
        "meta_mean_motion_ddot": 0,
        "tle_line1": "1 36255U 99025DWG 25345.04299951  .00003181  00000+0  10743-2 0  9993",
        "tle_line2": "2 36255  99.4341 265.5336 0063800 168.3873 261.8738 14.36557249639869"
      },
      "geometry": {
        "type": "Point",
        "coordinates": [
          130.64213975111795,
          76.34705731109439
        ]
      }
    }
  ]
}